[
    {
        "Altitude(m)": 624790.7867382304,
        "Argument of Periapsis(deg)": 0.0,
        "Eccentricity": 0.0,
        "Inclination(deg)": 60.0,
        "Latitude(deg)": -59.14709035610114,
        "Longitude(deg)": 36.03477198584261,
        "Mean Anomaly(deg)": -81.81819999999996,
        "RAAN(deg)": 210.0,
        "Satellite Name": "Test1 941",
        "Satellite Number": 941,
        "Semi-Major Axis(m)": 6980739.136638005,
        "Time(s)": 0
    },
    {
        "Altitude(m)": 624737.4411425301,
        "Argument of Periapsis(deg)": 0.00010418945913296404,
        "Eccentricity": 0.0,
        "Inclination(deg)": 60.0,
        "Latitude(deg)": -58.994543560096766,
        "Longitude(deg)": 37.154272172508996,
        "Mean Anomaly(deg)": -81.1980938545381,
        "RAAN(deg)": 209.99957995086027,
        "Satellite Name": "Test1 941",
        "Satellite Number": 941,
        "Semi-Major Axis(m)": 6980739.136638005,
        "Time(s)": 10
    }
]